SEEDS II (CO-66)        
1 32791U 08021J   26068.92109284  .00023758  00000+0  84213-3 0  9995
2 32791  97.7519  62.3611 0001448 359.2618   0.8619 15.29097235972108
STARLINK-31848          
1 59784U 24093C   26068.41481086 -.00000441  00000+0 -64959-5 0  9993
2 59784  43.0002 206.9663 0001099 289.2615  70.8118 15.27561249102693
